AUTCUBE 2               
1 43681U 18084K   26068.48152820  .00005282  00000+0  33524-3 0  9991
2 43681  98.0799 269.3640 0009685  28.2406 331.9345 15.09319394401889
STARLINK-4211           
1 52873U 22062AV  26068.22571263  .00000241  00000+0  33241-4 0  9990
2 52873  53.2203  16.2045 0001416  96.2205 263.8949 15.08830167205991
